sat25369
1 25369U 98036G   20046.96183480 -.00000036  00000-0 -36795-3 0  9996
2 25369  82.5953 335.1103 0342762 257.0743 147.5003 12.14680825960942
